[
  {
    "COMMENT": "GENERATED VIA SPACETRACK.ORG API",
    "ORIGINATOR": "18 SPCS",
    "NORAD_CAT_ID": "36508",
    "OBJECT_NAME": "CRYOSAT 2",
    "OBJECT_TYPE": "PAYLOAD",
    "CLASSIFICATION_TYPE": "U",
    "INTLDES": "10013A",
    "EPOCH": "2023-04-11 12:56:13",
    "EPOCH_MICROSECONDS": "796448",
    "MEAN_MOTION": "14.51901313",
    "ECCENTRICITY": "0.0002947",
    "INCLINATION": "92.0282",
    "RA_OF_ASC_NODE": "356.3022",
    "ARG_OF_PERICENTER": "351.9907",
    "MEAN_ANOMALY": "8.1252",
    "EPHEMERIS_TYPE": "0",
    "ELEMENT_SET_NO": "999",
    "REV_AT_EPOCH": "68938",
    "BSTAR": "0.000060749",
    "MEAN_MOTION_DOT": "0.00000248",
    "MEAN_MOTION_DDOT": "0",
    "FILE": "3885783",
    "TLE_LINE0": "0 CRYOSAT 2",
    "TLE_LINE1": "1 36508U 10013A   23101.53904857  .00000248  00000-0  60749-4 0  9999",
    "TLE_LINE2": "2 36508  92.0282 356.3022 0002947 351.9907   8.1252 14.51901313689384",
    "OBJECT_ID": "2010-013A",
    "OBJECT_NUMBER": "36508",
    "SEMIMAJOR_AXIS": "7097.582",
    "PERIOD": "99.180",
    "APOGEE": "721.539",
    "PERIGEE": "717.356",
    "DECAYED": "0"
  },
  {
    "COMMENT": "GENERATED VIA SPACETRACK.ORG API",
    "ORIGINATOR": "18 SPCS",
    "NORAD_CAT_ID": "36508",
    "OBJECT_NAME": "CRYOSAT 2",
    "OBJECT_TYPE": "PAYLOAD",
    "CLASSIFICATION_TYPE": "U",
    "INTLDES": "10013A",
    "EPOCH": "2023-04-11 22:51:41",
    "EPOCH_MICROSECONDS": "953824",
    "MEAN_MOTION": "14.51901484",
    "ECCENTRICITY": "0.0002891",
    "INCLINATION": "92.0282",
    "RA_OF_ASC_NODE": "356.4023",
    "ARG_OF_PERICENTER": "350.5226",
    "MEAN_ANOMALY": "9.5926",
    "EPHEMERIS_TYPE": "0",
    "ELEMENT_SET_NO": "999",
    "REV_AT_EPOCH": "68944",
    "BSTAR": "0.00005954",
    "MEAN_MOTION_DOT": "0.00000243",
    "MEAN_MOTION_DDOT": "0",
    "FILE": "3885919",
    "TLE_LINE0": "0 CRYOSAT 2",
    "TLE_LINE1": "1 36508U 10013A   23101.95256891  .00000243  00000-0  59540-4 0  9995",
    "TLE_LINE2": "2 36508  92.0282 356.4023 0002891 350.5226   9.5926 14.51901484689442",
    "OBJECT_ID": "2010-013A",
    "OBJECT_NUMBER": "36508",
    "SEMIMAJOR_AXIS": "7097.582",
    "PERIOD": "99.180",
    "APOGEE": "721.499",
    "PERIGEE": "717.395",
    "DECAYED": "0"
  },
  {
    "COMMENT": "GENERATED VIA SPACETRACK.ORG API",
    "ORIGINATOR": "18 SPCS",
    "NORAD_CAT_ID": "36508",
    "OBJECT_NAME": "CRYOSAT 2",
    "OBJECT_TYPE": "PAYLOAD",
    "CLASSIFICATION_TYPE": "U",
    "INTLDES": "10013A",
    "EPOCH": "2023-04-12 13:44:54",
    "EPOCH_MICROSECONDS": "184704",
    "MEAN_MOTION": "14.5190171",
    "ECCENTRICITY": "0.0002796",
    "INCLINATION": "92.028",
    "RA_OF_ASC_NODE": "356.5524",
    "ARG_OF_PERICENTER": "348.1732",
    "MEAN_ANOMALY": "11.9409",
    "EPHEMERIS_TYPE": "0",
    "ELEMENT_SET_NO": "999",
    "REV_AT_EPOCH": "68953",
    "BSTAR": "0.000055993",
    "MEAN_MOTION_DOT": "0.00000228",
    "MEAN_MOTION_DDOT": "0",
    "FILE": "3886349",
    "TLE_LINE0": "0 CRYOSAT 2",
    "TLE_LINE1": "1 36508U 10013A   23102.57284936  .00000228  00000-0  55993-4 0  9996",
    "TLE_LINE2": "2 36508  92.0280 356.5524 0002796 348.1732  11.9409 14.51901710689531",
    "OBJECT_ID": "2010-013A",
    "OBJECT_NUMBER": "36508",
    "SEMIMAJOR_AXIS": "7097.581",
    "PERIOD": "99.180",
    "APOGEE": "721.431",
    "PERIGEE": "717.462",
    "DECAYED": "0"
  },
  {
    "COMMENT": "GENERATED VIA SPACETRACK.ORG API",
    "ORIGINATOR": "18 SPCS",
    "NORAD_CAT_ID": "36508",
    "OBJECT_NAME": "CRYOSAT 2",
    "OBJECT_TYPE": "PAYLOAD",
    "CLASSIFICATION_TYPE": "U",
    "INTLDES": "10013A",
    "EPOCH": "2023-04-12 20:21:52",
    "EPOCH_MICROSECONDS": "946208",
    "MEAN_MOTION": "14.51901938",
    "ECCENTRICITY": "0.0002759",
    "INCLINATION": "92.028",
    "RA_OF_ASC_NODE": "356.6192",
    "ARG_OF_PERICENTER": "347.0521",
    "MEAN_ANOMALY": "13.0615",
    "EPHEMERIS_TYPE": "0",
    "ELEMENT_SET_NO": "999",
    "REV_AT_EPOCH": "68961",
    "BSTAR": "0.000059352",
    "MEAN_MOTION_DOT": "0.00000242",
    "MEAN_MOTION_DDOT": "0",
    "FILE": "3886494",
    "TLE_LINE0": "0 CRYOSAT 2",
    "TLE_LINE1": "1 36508U 10013A   23102.84852947  .00000242  00000-0  59352-4 0  9998",
    "TLE_LINE2": "2 36508  92.0280 356.6192 0002759 347.0521  13.0615 14.51901938689619",
    "OBJECT_ID": "2010-013A",
    "OBJECT_NUMBER": "36508",
    "SEMIMAJOR_AXIS": "7097.580",
    "PERIOD": "99.180",
    "APOGEE": "721.404",
    "PERIGEE": "717.487",
    "DECAYED": "0"
  },
  {
    "COMMENT": "GENERATED VIA SPACETRACK.ORG API",
    "ORIGINATOR": "18 SPCS",
    "NORAD_CAT_ID": "36508",
    "OBJECT_NAME": "CRYOSAT 2",
    "OBJECT_TYPE": "PAYLOAD",
    "CLASSIFICATION_TYPE": "U",
    "INTLDES": "10013A",
    "EPOCH": "2023-04-13 09:35:50",
    "EPOCH_MICROSECONDS": "471808",
    "MEAN_MOTION": "14.51902186",
    "ECCENTRICITY": "0.0002679",
    "INCLINATION": "92.0279",
    "RA_OF_ASC_NODE": "356.7527",
    "ARG_OF_PERICENTER": "344.9033",
    "MEAN_ANOMALY": "15.2094",
    "EPHEMERIS_TYPE": "0",
    "ELEMENT_SET_NO": "999",
    "REV_AT_EPOCH": "68965",
    "BSTAR": "0.000058256",
    "MEAN_MOTION_DOT": "0.00000238",
    "MEAN_MOTION_DDOT": "0",
    "FILE": "3886564",
    "TLE_LINE0": "0 CRYOSAT 2",
    "TLE_LINE1": "1 36508U 10013A   23103.39988972  .00000238  00000-0  58256-4 0  9994",
    "TLE_LINE2": "2 36508  92.0279 356.7527 0002679 344.9033  15.2094 14.51902186689650",
    "OBJECT_ID": "2010-013A",
    "OBJECT_NUMBER": "36508",
    "SEMIMAJOR_AXIS": "7097.580",
    "PERIOD": "99.180",
    "APOGEE": "721.346",
    "PERIGEE": "717.543",
    "DECAYED": "0"
  },
  {
    "COMMENT": "GENERATED VIA SPACETRACK.ORG API",
    "ORIGINATOR": "18 SPCS",
    "NORAD_CAT_ID": "36508",
    "OBJECT_NAME": "CRYOSAT 2",
    "OBJECT_TYPE": "PAYLOAD",
    "CLASSIFICATION_TYPE": "U",
    "INTLDES": "10013A",
    "EPOCH": "2023-04-14 12:03:45",
    "EPOCH_MICROSECONDS": "485856",
    "MEAN_MOTION": "14.51902966",
    "ECCENTRICITY": "0.0002527",
    "INCLINATION": "92.0278",
    "RA_OF_ASC_NODE": "357.0196",
    "ARG_OF_PERICENTER": "340.1818",
    "MEAN_ANOMALY": "19.9291",
    "EPHEMERIS_TYPE": "0",
    "ELEMENT_SET_NO": "999",
    "REV_AT_EPOCH": "68981",
    "BSTAR": "0.000069294",
    "MEAN_MOTION_DOT": "0.00000282",
    "MEAN_MOTION_DDOT": "0",
    "FILE": "3887333",
    "TLE_LINE0": "0 CRYOSAT 2",
    "TLE_LINE1": "1 36508U 10013A   23104.50260979  .00000282  00000-0  69294-4 0  9991",
    "TLE_LINE2": "2 36508  92.0278 357.0196 0002527 340.1818  19.9291 14.51902966689810",
    "OBJECT_ID": "2010-013A",
    "OBJECT_NUMBER": "36508",
    "SEMIMAJOR_AXIS": "7097.577",
    "PERIOD": "99.180",
    "APOGEE": "721.236",
    "PERIGEE": "717.648",
    "DECAYED": "0"
  },
  {
    "COMMENT": "GENERATED VIA SPACETRACK.ORG API",
    "ORIGINATOR": "18 SPCS",
    "NORAD_CAT_ID": "36508",
    "OBJECT_NAME": "CRYOSAT 2",
    "OBJECT_TYPE": "PAYLOAD",
    "CLASSIFICATION_TYPE": "U",
    "INTLDES": "10013A",
    "EPOCH": "2023-04-15 14:31:40",
    "EPOCH_MICROSECONDS": "451520",
    "MEAN_MOTION": "14.5190393",
    "ECCENTRICITY": "0.0002375",
    "INCLINATION": "92.0277",
    "RA_OF_ASC_NODE": "357.2865",
    "ARG_OF_PERICENTER": "335.2696",
    "MEAN_ANOMALY": "24.8397",
    "EPHEMERIS_TYPE": "0",
    "ELEMENT_SET_NO": "999",
    "REV_AT_EPOCH": "69001",
    "BSTAR": "0.000084787",
    "MEAN_MOTION_DOT": "0.00000344",
    "MEAN_MOTION_DDOT": "0",
    "FILE": "3887943",
    "TLE_LINE0": "0 CRYOSAT 2",
    "TLE_LINE1": "1 36508U 10013A   23105.60532930  .00000344  00000-0  84787-4 0  9995",
    "TLE_LINE2": "2 36508  92.0277 357.2865 0002375 335.2696  24.8397 14.51903930690012",
    "OBJECT_ID": "2010-013A",
    "OBJECT_NUMBER": "36508",
    "SEMIMAJOR_AXIS": "7097.574",
    "PERIOD": "99.180",
    "APOGEE": "721.125",
    "PERIGEE": "717.753",
    "DECAYED": "0"
  },
  {
    "COMMENT": "GENERATED VIA SPACETRACK.ORG API",
    "ORIGINATOR": "18 SPCS",
    "NORAD_CAT_ID": "36508",
    "OBJECT_NAME": "CRYOSAT 2",
    "OBJECT_TYPE": "PAYLOAD",
    "CLASSIFICATION_TYPE": "U",
    "INTLDES": "10013A",
    "EPOCH": "2023-04-15 14:31:40",
    "EPOCH_MICROSECONDS": "451520",
    "MEAN_MOTION": "14.5190393",
    "ECCENTRICITY": "0.0002375",
    "INCLINATION": "92.0277",
    "RA_OF_ASC_NODE": "357.2865",
    "ARG_OF_PERICENTER": "335.2696",
    "MEAN_ANOMALY": "24.8397",
    "EPHEMERIS_TYPE": "0",
    "ELEMENT_SET_NO": "999",
    "REV_AT_EPOCH": "68997",
    "BSTAR": "0.000084787",
    "MEAN_MOTION_DOT": "0.00000344",
    "MEAN_MOTION_DDOT": "0",
    "FILE": "3887974",
    "TLE_LINE0": "0 CRYOSAT 2",
    "TLE_LINE1": "1 36508U 10013A   23105.60532930  .00000344  00000-0  84787-4 0  9995",
    "TLE_LINE2": "2 36508  92.0277 357.2865 0002375 335.2696  24.8397 14.51903930689975",
    "OBJECT_ID": "2010-013A",
    "OBJECT_NUMBER": "36508",
    "SEMIMAJOR_AXIS": "7097.574",
    "PERIOD": "99.180",
    "APOGEE": "721.125",
    "PERIGEE": "717.753",
    "DECAYED": "0"
  },
  {
    "COMMENT": "GENERATED VIA SPACETRACK.ORG API",
    "ORIGINATOR": "18 SPCS",
    "NORAD_CAT_ID": "36508",
    "OBJECT_NAME": "CRYOSAT 2",
    "OBJECT_TYPE": "PAYLOAD",
    "CLASSIFICATION_TYPE": "U",
    "INTLDES": "10013A",
    "EPOCH": "2023-04-15 21:08:39",
    "EPOCH_MICROSECONDS": "184512",
    "MEAN_MOTION": "14.51904091",
    "ECCENTRICITY": "0.0002334",
    "INCLINATION": "92.0277",
    "RA_OF_ASC_NODE": "357.3532",
    "ARG_OF_PERICENTER": "334.1064",
    "MEAN_ANOMALY": "26.0026",
    "EPHEMERIS_TYPE": "0",
    "ELEMENT_SET_NO": "999",
    "REV_AT_EPOCH": "69001",
    "BSTAR": "0.000083972",
    "MEAN_MOTION_DOT": "0.00000341",
    "MEAN_MOTION_DDOT": "0",
    "FILE": "3888171",
    "TLE_LINE0": "0 CRYOSAT 2",
    "TLE_LINE1": "1 36508U 10013A   23105.88100908  .00000341  00000-0  83972-4 0  9993",
    "TLE_LINE2": "2 36508  92.0277 357.3532 0002334 334.1064  26.0026 14.51904091690018",
    "OBJECT_ID": "2010-013A",
    "OBJECT_NUMBER": "36508",
    "SEMIMAJOR_AXIS": "7097.573",
    "PERIOD": "99.180",
    "APOGEE": "721.095",
    "PERIGEE": "717.782",
    "DECAYED": "0"
  }
]